{
  "type": "FeatureCollection",
  "features": [
    {
      "type": "Feature",
      "properties": {
        "nombre": "San Martin",
        "partido": "San Martin",
        "nivel_alerta": "amarillo"
      },
      "geometry": {
        "type": "Polygon",
        "coordinates": [
          [
            [
              -64.0,
              -32.0
            ],
            [
              -63.448,
              -32.0
            ],
            [
              -63.448,
              -32.552
            ],
            [
              -64.0,
              -32.552
            ],
            [
              -64.0,
              -32.0
            ]
          ]
        ]
      }
    },
    {
      "type": "Feature",
      "properties": {
        "nombre": "Belgrano",
        "partido": "Belgrano",
        "nivel_alerta": "ninguno"
      },
      "geometry": {
        "type": "Polygon",
        "coordinates": [
          [
            [
              -63.4,
              -32.0
            ],
            [
              -62.848,
              -32.0
            ],
            [
              -62.848,
              -32.552
            ],
            [
              -63.4,
              -32.552
            ],
            [
              -63.4,
              -32.0
            ]
          ]
        ]
      }
    },
    {
      "type": "Feature",
      "properties": {
        "nombre": "Sarmiento",
        "partido": "Sarmiento",
        "nivel_alerta": "ninguno"
      },
      "geometry": {
        "type": "Polygon",
        "coordinates": [
          [
            [
              -62.8,
              -32.0
            ],
            [
              -62.248,
              -32.0
            ],
            [
              -62.248,
              -32.552
            ],
            [
              -62.8,
              -32.552
            ],
            [
              -62.8,
              -32.0
            ]
          ]
        ]
      }
    },
    {
      "type": "Feature",
      "properties": {
        "nombre": "Rivadavia",
        "partido": "Rivadavia",
        "nivel_alerta": "ninguno"
      },
      "geometry": {
        "type": "Polygon",
        "coordinates": [
          [
            [
              -62.2,
              -32.0
            ],
            [
              -61.648,
              -32.0
            ],
            [
              -61.648,
              -32.552
            ],
            [
              -62.2,
              -32.552
            ],
            [
              -62.2,
              -32.0
            ]
          ]
        ]
      }
    },
    {
      "type": "Feature",
      "properties": {
        "nombre": "Mitre",
        "partido": "Mitre",
        "nivel_alerta": "naranja"
      },
      "geometry": {
        "type": "Polygon",
        "coordinates": [
          [
            [
              -61.6,
              -32.0
            ],
            [
              -61.048,
              -32.0
            ],
            [
              -61.048,
              -32.552
            ],
            [
              -61.6,
              -32.552
            ],
            [
              -61.6,
              -32.0
            ]
          ]
        ]
      }
    },
    {
      "type": "Feature",
      "properties": {
        "nombre": "Roca",
        "partido": "Roca",
        "nivel_alerta": "naranja"
      },
      "geometry": {
        "type": "Polygon",
        "coordinates": [
          [
            [
              -64.0,
              -32.6
            ],
            [
              -63.448,
              -32.6
            ],
            [
              -63.448,
              -33.152
            ],
            [
              -64.0,
              -33.152
            ],
            [
              -64.0,
              -32.6
            ]
          ]
        ]
      }
    },
    {
      "type": "Feature",
      "properties": {
        "nombre": "Alberdi",
        "partido": "Alberdi",
        "nivel_alerta": "naranja"
      },
      "geometry": {
        "type": "Polygon",
        "coordinates": [
          [
            [
              -63.4,
              -32.6
            ],
            [
              -62.848,
              -32.6
            ],
            [
              -62.848,
              -33.152
            ],
            [
              -63.4,
              -33.152
            ],
            [
              -63.4,
              -32.6
            ]
          ]
        ]
      }
    },
    {
      "type": "Feature",
      "properties": {
        "nombre": "Moreno",
        "partido": "Moreno",
        "nivel_alerta": "ninguno"
      },
      "geometry": {
        "type": "Polygon",
        "coordinates": [
          [
            [
              -62.8,
              -32.6
            ],
            [
              -62.248,
              -32.6
            ],
            [
              -62.248,
              -33.152
            ],
            [
              -62.8,
              -33.152
            ],
            [
              -62.8,
              -32.6
            ]
          ]
        ]
      }
    },
    {
      "type": "Feature",
      "properties": {
        "nombre": "San Lorenzo",
        "partido": "San Lorenzo",
        "nivel_alerta": "amarillo"
      },
      "geometry": {
        "type": "Polygon",
        "coordinates": [
          [
            [
              -62.2,
              -32.6
            ],
            [
              -61.648,
              -32.6
            ],
            [
              -61.648,
              -33.152
            ],
            [
              -62.2,
              -33.152
            ],
            [
              -62.2,
              -32.6
            ]
          ]
        ]
      }
    },
    {
      "type": "Feature",
      "properties": {
        "nombre": "Urquiza",
        "partido": "Urquiza",
        "nivel_alerta": "ninguno"
      },
      "geometry": {
        "type": "Polygon",
        "coordinates": [
          [
            [
              -61.6,
              -32.6
            ],
            [
              -61.048,
              -32.6
            ],
            [
              -61.048,
              -33.152
            ],
            [
              -61.6,
              -33.152
            ],
            [
              -61.6,
              -32.6
            ]
          ]
        ]
      }
    },
    {
      "type": "Feature",
      "properties": {
        "nombre": "Paz",
        "partido": "Paz",
        "nivel_alerta": "ninguno"
      },
      "geometry": {
        "type": "Polygon",
        "coordinates": [
          [
            [
              -64.0,
              -33.2
            ],
            [
              -63.448,
              -33.2
            ],
            [
              -63.448,
              -33.752
            ],
            [
              -64.0,
              -33.752
            ],
            [
              -64.0,
              -33.2
            ]
          ]
        ]
      }
    },
    {
      "type": "Feature",
      "properties": {
        "nombre": "Yrigoyen",
        "partido": "Yrigoyen",
        "nivel_alerta": "amarillo"
      },
      "geometry": {
        "type": "Polygon",
        "coordinates": [
          [
            [
              -63.4,
              -33.2
            ],
            [
              -62.848,
              -33.2
            ],
            [
              -62.848,
              -33.752
            ],
            [
              -63.4,
              -33.752
            ],
            [
              -63.4,
              -33.2
            ]
          ]
        ]
      }
    },
    {
      "type": "Feature",
      "properties": {
        "nombre": "Lavalle",
        "partido": "Lavalle",
        "nivel_alerta": "ninguno"
      },
      "geometry": {
        "type": "Polygon",
        "coordinates": [
          [
            [
              -62.8,
              -33.2
            ],
            [
              -62.248,
              -33.2
            ],
            [
              -62.248,
              -33.752
            ],
            [
              -62.8,
              -33.752
            ],
            [
              -62.8,
              -33.2
            ]
          ]
        ]
      }
    },
    {
      "type": "Feature",
      "properties": {
        "nombre": "Pueyrredon",
        "partido": "Pueyrredon",
        "nivel_alerta": "ninguno"
      },
      "geometry": {
        "type": "Polygon",
        "coordinates": [
          [
            [
              -62.2,
              -33.2
            ],
            [
              -61.648,
              -33.2
            ],
            [
              -61.648,
              -33.752
            ],
            [
              -62.2,
              -33.752
            ],
            [
              -62.2,
              -33.2
            ]
          ]
        ]
      }
    },
    {
      "type": "Feature",
      "properties": {
        "nombre": "Rosas",
        "partido": "Rosas",
        "nivel_alerta": "amarillo"
      },
      "geometry": {
        "type": "Polygon",
        "coordinates": [
          [
            [
              -61.6,
              -33.2
            ],
            [
              -61.048,
              -33.2
            ],
            [
              -61.048,
              -33.752
            ],
            [
              -61.6,
              -33.752
            ],
            [
              -61.6,
              -33.2
            ]
          ]
        ]
      }
    },
    {
      "type": "Feature",
      "properties": {
        "nombre": "Ameghino",
        "partido": "Ameghino",
        "nivel_alerta": "amarillo"
      },
      "geometry": {
        "type": "Polygon",
        "coordinates": [
          [
            [
              -64.0,
              -33.8
            ],
            [
              -63.448,
              -33.8
            ],
            [
              -63.448,
              -34.352
            ],
            [
              -64.0,
              -34.352
            ],
            [
              -64.0,
              -33.8
            ]
          ]
        ]
      }
    },
    {
      "type": "Feature",
      "properties": {
        "nombre": "Avellaneda",
        "partido": "Avellaneda",
        "nivel_alerta": "ninguno"
      },
      "geometry": {
        "type": "Polygon",
        "coordinates": [
          [
            [
              -63.4,
              -33.8
            ],
            [
              -62.848,
              -33.8
            ],
            [
              -62.848,
              -34.352
            ],
            [
              -63.4,
              -34.352
            ],
            [
              -63.4,
              -33.8
            ]
          ]
        ]
      }
    },
    {
      "type": "Feature",
      "properties": {
        "nombre": "Quiroga",
        "partido": "Quiroga",
        "nivel_alerta": "amarillo"
      },
      "geometry": {
        "type": "Polygon",
        "coordinates": [
          [
            [
              -62.8,
              -33.8
            ],
            [
              -62.248,
              -33.8
            ],
            [
              -62.248,
              -34.352
            ],
            [
              -62.8,
              -34.352
            ],
            [
              -62.8,
              -33.8
            ]
          ]
        ]
      }
    },
    {
      "type": "Feature",
      "properties": {
        "nombre": "Guemes",
        "partido": "Guemes",
        "nivel_alerta": "naranja"
      },
      "geometry": {
        "type": "Polygon",
        "coordinates": [
          [
            [
              -62.2,
              -33.8
            ],
            [
              -61.648,
              -33.8
            ],
            [
              -61.648,
              -34.352
            ],
            [
              -62.2,
              -34.352
            ],
            [
              -62.2,
              -33.8
            ]
          ]
        ]
      }
    },
    {
      "type": "Feature",
      "properties": {
        "nombre": "San Justo",
        "partido": "San Justo",
        "nivel_alerta": "ninguno"
      },
      "geometry": {
        "type": "Polygon",
        "coordinates": [
          [
            [
              -61.6,
              -33.8
            ],
            [
              -61.048,
              -33.8
            ],
            [
              -61.048,
              -34.352
            ],
            [
              -61.6,
              -34.352
            ],
            [
              -61.6,
              -33.8
            ]
          ]
        ]
      }
    },
    {
      "type": "Feature",
      "properties": {
        "nombre": "Castelli",
        "partido": "Castelli",
        "nivel_alerta": "naranja"
      },
      "geometry": {
        "type": "Polygon",
        "coordinates": [
          [
            [
              -64.0,
              -34.4
            ],
            [
              -63.448,
              -34.4
            ],
            [
              -63.448,
              -34.952
            ],
            [
              -64.0,
              -34.952
            ],
            [
              -64.0,
              -34.4
            ]
          ]
        ]
      }
    },
    {
      "type": "Feature",
      "properties": {
        "nombre": "Dorrego",
        "partido": "Dorrego",
        "nivel_alerta": "naranja"
      },
      "geometry": {
        "type": "Polygon",
        "coordinates": [
          [
            [
              -63.4,
              -34.4
            ],
            [
              -62.848,
              -34.4
            ],
            [
              -62.848,
              -34.952
            ],
            [
              -63.4,
              -34.952
            ],
            [
              -63.4,
              -34.4
            ]
          ]
        ]
      }
    },
    {
      "type": "Feature",
      "properties": {
        "nombre": "Balcarce",
        "partido": "Balcarce",
        "nivel_alerta": "ninguno"
      },
      "geometry": {
        "type": "Polygon",
        "coordinates": [
          [
            [
              -62.8,
              -34.4
            ],
            [
              -62.248,
              -34.4
            ],
            [
              -62.248,
              -34.952
            ],
            [
              -62.8,
              -34.952
            ],
            [
              -62.8,
              -34.4
            ]
          ]
        ]
      }
    },
    {
      "type": "Feature",
      "properties": {
        "nombre": "Chacabuco",
        "partido": "Chacabuco",
        "nivel_alerta": "ninguno"
      },
      "geometry": {
        "type": "Polygon",
        "coordinates": [
          [
            [
              -62.2,
              -34.4
            ],
            [
              -61.648,
              -34.4
            ],
            [
              -61.648,
              -34.952
            ],
            [
              -62.2,
              -34.952
            ],
            [
              -62.2,
              -34.4
            ]
          ]
        ]
      }
    },
    {
      "type": "Feature",
      "properties": {
        "nombre": "Maipu",
        "partido": "Maipu",
        "nivel_alerta": "rojo"
      },
      "geometry": {
        "type": "Polygon",
        "coordinates": [
          [
            [
              -61.6,
              -34.4
            ],
            [
              -61.048,
              -34.4
            ],
            [
              -61.048,
              -34.952
            ],
            [
              -61.6,
              -34.952
            ],
            [
              -61.6,
              -34.4
            ]
          ]
        ]
      }
    },
    {
      "type": "Feature",
      "properties": {
        "nombre": "San Nicolas",
        "partido": "San Nicolas",
        "nivel_alerta": "ninguno"
      },
      "geometry": {
        "type": "Polygon",
        "coordinates": [
          [
            [
              -64.0,
              -35.0
            ],
            [
              -63.448,
              -35.0
            ],
            [
              -63.448,
              -35.552
            ],
            [
              -64.0,
              -35.552
            ],
            [
              -64.0,
              -35.0
            ]
          ]
        ]
      }
    },
    {
      "type": "Feature",
      "properties": {
        "nombre": "Tandil",
        "partido": "Tandil",
        "nivel_alerta": "ninguno"
      },
      "geometry": {
        "type": "Polygon",
        "coordinates": [
          [
            [
              -63.4,
              -35.0
            ],
            [
              -62.848,
              -35.0
            ],
            [
              -62.848,
              -35.552
            ],
            [
              -63.4,
              -35.552
            ],
            [
              -63.4,
              -35.0
            ]
          ]
        ]
      }
    },
    {
      "type": "Feature",
      "properties": {
        "nombre": "Necochea",
        "partido": "Necochea",
        "nivel_alerta": "ninguno"
      },
      "geometry": {
        "type": "Polygon",
        "coordinates": [
          [
            [
              -62.8,
              -35.0
            ],
            [
              -62.248,
              -35.0
            ],
            [
              -62.248,
              -35.552
            ],
            [
              -62.8,
              -35.552
            ],
            [
              -62.8,
              -35.0
            ]
          ]
        ]
      }
    },
    {
      "type": "Feature",
      "properties": {
        "nombre": "Olavarria",
        "partido": "Olavarria",
        "nivel_alerta": "naranja"
      },
      "geometry": {
        "type": "Polygon",
        "coordinates": [
          [
            [
              -62.2,
              -35.0
            ],
            [
              -61.648,
              -35.0
            ],
            [
              -61.648,
              -35.552
            ],
            [
              -62.2,
              -35.552
            ],
            [
              -62.2,
              -35.0
            ]
          ]
        ]
      }
    },
    {
      "type": "Feature",
      "properties": {
        "nombre": "Azul",
        "partido": "Azul",
        "nivel_alerta": "amarillo"
      },
      "geometry": {
        "type": "Polygon",
        "coordinates": [
          [
            [
              -61.6,
              -35.0
            ],
            [
              -61.048,
              -35.0
            ],
            [
              -61.048,
              -35.552
            ],
            [
              -61.6,
              -35.552
            ],
            [
              -61.6,
              -35.0
            ]
          ]
        ]
      }
    }
  ]
}